MERIDIAN-M 21L          
1 68571U 26071A   26093.32069436 -.00001265  00000+0  16587-2 0  9999
2 68571  62.7917 238.8364 7241466 284.9481  10.7459  1.98618778    13
FREGAT R/B              
1 68572U 26071B   26093.32132148 -.00001541  00000+0  35052-3 0  9997
2 68572  63.0589 237.9448 7313819 284.9724  10.3188  2.01041412    13
